[{"OBJECT_NAME":"GSAT0215 (GALILEO 19)","OBJECT_ID":"2017-079A","EPOCH":"2026-03-28T01:36:52.558272","MEAN_MOTION":1.70474561,"ECCENTRICITY":5.599e-5,"INCLINATION":55.1004,"RA_OF_ASC_NODE":223.7366,"ARG_OF_PERICENTER":288.8027,"MEAN_ANOMALY":71.1377,"EPHEMERIS_TYPE":0,"CLASSIFICATION_TYPE":"U","NORAD_CAT_ID":43055,"ELEMENT_SET_NO":999,"REV_AT_EPOCH":5160,"BSTAR":0,"MEAN_MOTION_DOT":-1.8e-7,"MEAN_MOTION_DDOT":0},{"OBJECT_NAME":"GSAT0216 (GALILEO 20)","OBJECT_ID":"2017-079B","EPOCH":"2026-03-28T08:36:12.435264","MEAN_MOTION":1.70474678,"ECCENTRICITY":0.0001951,"INCLINATION":55.1004,"RA_OF_ASC_NODE":223.7286,"ARG_OF_PERICENTER":299.6924,"MEAN_ANOMALY":60.2331,"EPHEMERIS_TYPE":0,"CLASSIFICATION_TYPE":"U","NORAD_CAT_ID":43056,"ELEMENT_SET_NO":999,"REV_AT_EPOCH":5162,"BSTAR":0,"MEAN_MOTION_DOT":-2.0e-7,"MEAN_MOTION_DDOT":0},{"OBJECT_NAME":"GSAT0217 (GALILEO 21)","OBJECT_ID":"2017-079C","EPOCH":"2026-03-27T23:49:26.202432","MEAN_MOTION":1.70474585,"ECCENTRICITY":0.0001844,"INCLINATION":55.0995,"RA_OF_ASC_NODE":223.7365,"ARG_OF_PERICENTER":336.2846,"MEAN_ANOMALY":23.6537,"EPHEMERIS_TYPE":0,"CLASSIFICATION_TYPE":"U","NORAD_CAT_ID":43057,"ELEMENT_SET_NO":999,"REV_AT_EPOCH":5160,"BSTAR":0,"MEAN_MOTION_DOT":-1.7e-7,"MEAN_MOTION_DDOT":0},{"OBJECT_NAME":"GSAT0218 (GALILEO 22)","OBJECT_ID":"2017-079D","EPOCH":"2026-03-26T10:52:17.891904","MEAN_MOTION":1.70474511,"ECCENTRICITY":0.00022745,"INCLINATION":55.0993,"RA_OF_ASC_NODE":223.7765,"ARG_OF_PERICENTER":289.2872,"MEAN_ANOMALY":70.6427,"EPHEMERIS_TYPE":0,"CLASSIFICATION_TYPE":"U","NORAD_CAT_ID":43058,"ELEMENT_SET_NO":999,"REV_AT_EPOCH":5160,"BSTAR":0,"MEAN_MOTION_DOT":0,"MEAN_MOTION_DDOT":0},{"OBJECT_NAME":"GSAT0221 (GALILEO 25)","OBJECT_ID":"2018-060A","EPOCH":"2026-03-27T12:42:48.068064","MEAN_MOTION":1.70475505,"ECCENTRICITY":0.00047982,"INCLINATION":57.1946,"RA_OF_ASC_NODE":343.9877,"ARG_OF_PERICENTER":314.1453,"MEAN_ANOMALY":45.8491,"EPHEMERIS_TYPE":0,"CLASSIFICATION_TYPE":"U","NORAD_CAT_ID":43564,"ELEMENT_SET_NO":999,"REV_AT_EPOCH":4777,"BSTAR":0,"MEAN_MOTION_DOT":-9.7e-7,"MEAN_MOTION_DDOT":0},{"OBJECT_NAME":"GSAT0222 (GALILEO 26)","OBJECT_ID":"2018-060B","EPOCH":"2026-03-27T17:58:54.205536","MEAN_MOTION":1.7047508,"ECCENTRICITY":0.00034237,"INCLINATION":57.1988,"RA_OF_ASC_NODE":343.9851,"ARG_OF_PERICENTER":288.405,"MEAN_ANOMALY":71.5917,"EPHEMERIS_TYPE":0,"CLASSIFICATION_TYPE":"U","NORAD_CAT_ID":43565,"ELEMENT_SET_NO":999,"REV_AT_EPOCH":4782,"BSTAR":0,"MEAN_MOTION_DOT":-9.7e-7,"MEAN_MOTION_DDOT":0},{"OBJECT_NAME":"GSAT0219 (GALILEO 23)","OBJECT_ID":"2018-060C","EPOCH":"2026-03-26T05:03:05.055552","MEAN_MOTION":1.70475357,"ECCENTRICITY":0.00047055,"INCLINATION":57.1986,"RA_OF_ASC_NODE":344.0284,"ARG_OF_PERICENTER":320.4446,"MEAN_ANOMALY":39.5555,"EPHEMERIS_TYPE":0,"CLASSIFICATION_TYPE":"U","NORAD_CAT_ID":43566,"ELEMENT_SET_NO":999,"REV_AT_EPOCH":4777,"BSTAR":0,"MEAN_MOTION_DOT":-9.4e-7,"MEAN_MOTION_DDOT":0},{"OBJECT_NAME":"GSAT0220 (GALILEO 24)","OBJECT_ID":"2018-060D","EPOCH":"2026-03-27T00:25:57.912960","MEAN_MOTION":1.70475173,"ECCENTRICITY":0.0004469,"INCLINATION":57.1973,"RA_OF_ASC_NODE":344.0063,"ARG_OF_PERICENTER":319.2855,"MEAN_ANOMALY":40.7149,"EPHEMERIS_TYPE":0,"CLASSIFICATION_TYPE":"U","NORAD_CAT_ID":43567,"ELEMENT_SET_NO":999,"REV_AT_EPOCH":4777,"BSTAR":0,"MEAN_MOTION_DOT":-9.6e-7,"MEAN_MOTION_DDOT":0},{"OBJECT_NAME":"GSAT0223 (GALILEO 27)","OBJECT_ID":"2021-116A","EPOCH":"2026-03-26T13:48:11.384928","MEAN_MOTION":1.70475251,"ECCENTRICITY":0.0001802,"INCLINATION":57.1864,"RA_OF_ASC_NODE":343.9082,"ARG_OF_PERICENTER":284.715,"MEAN_ANOMALY":254.2688,"EPHEMERIS_TYPE":0,"CLASSIFICATION_TYPE":"U","NORAD_CAT_ID":49809,"ELEMENT_SET_NO":999,"REV_AT_EPOCH":2677,"BSTAR":0,"MEAN_MOTION_DOT":-9.5e-7,"MEAN_MOTION_DDOT":0},{"OBJECT_NAME":"GSAT0224 (GALILEO 28)","OBJECT_ID":"2021-116B","EPOCH":"2026-03-24T01:06:44.149248","MEAN_MOTION":1.70475197,"ECCENTRICITY":0.00012871,"INCLINATION":57.188,"RA_OF_ASC_NODE":343.9758,"ARG_OF_PERICENTER":309.9434,"MEAN_ANOMALY":229.6785,"EPHEMERIS_TYPE":0,"CLASSIFICATION_TYPE":"U","NORAD_CAT_ID":49810,"ELEMENT_SET_NO":999,"REV_AT_EPOCH":2675,"BSTAR":0,"MEAN_MOTION_DOT":-8.5e-7,"MEAN_MOTION_DDOT":0},{"OBJECT_NAME":"GSAT0225 (GALILEO 29)","OBJECT_ID":"2024-079A","EPOCH":"2026-03-28T01:49:00.365952","MEAN_MOTION":1.70474547,"ECCENTRICITY":0.00027404,"INCLINATION":55.0678,"RA_OF_ASC_NODE":103.3445,"ARG_OF_PERICENTER":270.8462,"MEAN_ANOMALY":214.737,"EPHEMERIS_TYPE":0,"CLASSIFICATION_TYPE":"U","NORAD_CAT_ID":59598,"ELEMENT_SET_NO":999,"REV_AT_EPOCH":1193,"BSTAR":0,"MEAN_MOTION_DOT":3.9e-7,"MEAN_MOTION_DDOT":0},{"OBJECT_NAME":"GSAT0227 (GALILEO 30)","OBJECT_ID":"2024-079C","EPOCH":"2026-03-25T16:59:50.260704","MEAN_MOTION":1.70474585,"ECCENTRICITY":6.165e-5,"INCLINATION":55.0598,"RA_OF_ASC_NODE":103.4096,"ARG_OF_PERICENTER":12.6919,"MEAN_ANOMALY":347.3562,"EPHEMERIS_TYPE":0,"CLASSIFICATION_TYPE":"U","NORAD_CAT_ID":59600,"ELEMENT_SET_NO":999,"REV_AT_EPOCH":1194,"BSTAR":0,"MEAN_MOTION_DOT":3.2e-7,"MEAN_MOTION_DDOT":0},{"OBJECT_NAME":"GSAT0226 (GALILEO 31)","OBJECT_ID":"2024-167B","EPOCH":"2026-03-27T12:58:24.631968","MEAN_MOTION":1.70474116,"ECCENTRICITY":0.0001564,"INCLINATION":55.2106,"RA_OF_ASC_NODE":223.5582,"ARG_OF_PERICENTER":156.5708,"MEAN_ANOMALY":194.8874,"EPHEMERIS_TYPE":0,"CLASSIFICATION_TYPE":"U","NORAD_CAT_ID":61183,"ELEMENT_SET_NO":999,"REV_AT_EPOCH":945,"BSTAR":0,"MEAN_MOTION_DOT":-1.2e-7,"MEAN_MOTION_DDOT":0},{"OBJECT_NAME":"GSAT0234 (GALILEO 34)","OBJECT_ID":"2025-302C","EPOCH":"2026-03-27T16:42:04.337856","MEAN_MOTION":1.70474528,"ECCENTRICITY":0.000383,"INCLINATION":54.283,"RA_OF_ASC_NODE":104.4494,"ARG_OF_PERICENTER":286.8102,"MEAN_ANOMALY":76.5044,"EPHEMERIS_TYPE":0,"CLASSIFICATION_TYPE":"U","NORAD_CAT_ID":67162,"ELEMENT_SET_NO":999,"REV_AT_EPOCH":179,"BSTAR":0,"MEAN_MOTION_DOT":3.6e-7,"MEAN_MOTION_DDOT":0}]
